start=new Date('2023-02-05T00:00:00.000Z').valueOf();
sats=[{"MEAN_MOTION_DOT":"0.00002163","COUNTRY_CODE":"US","MEAN_ANOMALY":"283.4294","FILE":"3772514","OBJECT_TYPE":"PAYLOAD","MEAN_MOTION_DDOT":"0.0000000000000","ECCENTRICITY":"0.00013740","EPOCH":"2023-02-04T17:41:36.232224","DECAY_DATE":null,"PERIAPSIS":"546.248","REF_FRAME":"TEME","INCLINATION":"53.0536","ARG_OF_PERICENTER":"76.6848","TLE_LINE2":"2 48583  53.0536 169.6849 0001374  76.6848 283.4294 15.06404413 94901","MEAN_MOTION":"15.06404413","SITE":"AFETR","SEMIMAJOR_AXIS":"6925.335","OBJECT_NAME":"STARLINK-2237","OBJECT_ID":"2021-041AG","RCS_SIZE":"LARGE","PERIOD":"95.592","REV_AT_EPOCH":"9490","CENTER_NAME":"EARTH","ELEMENT_SET_NO":"999","CLASSIFICATION_TYPE":"U","EPHEMERIS_TYPE":"0","APOAPSIS":"548.152","LAUNCH_DATE":"2021-05-15","TLE_LINE1":"1 48583U 21041AG  23035.73722491  .00002163  00000-0  16402-3 0  9992","RA_OF_ASC_NODE":"169.6849","GP_ID":"224439200","NORAD_CAT_ID":"48583","TIME_SYSTEM":"UTC","BSTAR":"0.00016402000000","MEAN_ELEMENT_THEORY":"SGP4"},{"COUNTRY_CODE":"US","MEAN_MOTION_DOT":"0.00001326","FILE":"3772514","MEAN_ANOMALY":"269.0163","ECCENTRICITY":"0.00011450","OBJECT_TYPE":"PAYLOAD","MEAN_MOTION_DDOT":"0.0000000000000","DECAY_DATE":null,"PERIAPSIS":"546.417","REF_FRAME":"TEME","INCLINATION":"53.0537","ARG_OF_PERICENTER":"91.0957","MEAN_MOTION":"15.06401089","TLE_LINE2":"2 48584  53.0537 170.1021 0001145  91.0957 269.0163 15.06401089 94888","EPOCH":"2023-02-04T15:28:54.307200","OBJECT_NAME":"STARLINK-2238","SEMIMAJOR_AXIS":"6925.345","SITE":"AFETR","RCS_SIZE":"LARGE","OBJECT_ID":"2021-041AH","PERIOD":"95.592","REV_AT_EPOCH":"9488","CENTER_NAME":"EARTH","GP_ID":"224439450","TLE_LINE1":"1 48584U 21041AH  23035.64507300  .00001326  00000-0  10789-3 0  9995","RA_OF_ASC_NODE":"170.1021","NORAD_CAT_ID":"48584","CLASSIFICATION_TYPE":"U","ELEMENT_SET_NO":"999","EPHEMERIS_TYPE":"0","LAUNCH_DATE":"2021-05-15","APOAPSIS":"548.003","BSTAR":"0.00010789000000","TIME_SYSTEM":"UTC","MEAN_ELEMENT_THEORY":"SGP4"},{"SEMIMAJOR_AXIS":"6925.327","OBJECT_NAME":"STARLINK-2240","SITE":"AFETR","PERIAPSIS":"546.410","DECAY_DATE":null,"ARG_OF_PERICENTER":"91.0297","REF_FRAME":"TEME","INCLINATION":"53.0511","TLE_LINE2":"2 48585  53.0511 169.4584 0001128  91.0297 269.0821 15.06407143 94905","MEAN_MOTION":"15.06407143","EPOCH":"2023-02-04T18:55:54.434208","ECCENTRICITY":"0.00011280","OBJECT_TYPE":"PAYLOAD","MEAN_MOTION_DDOT":"0.0000000000000","COUNTRY_CODE":"US","MEAN_MOTION_DOT":"0.00003504","MEAN_ANOMALY":"269.0821","FILE":"3772514","TIME_SYSTEM":"UTC","BSTAR":"0.00025394000000","MEAN_ELEMENT_THEORY":"SGP4","TLE_LINE1":"1 48585U 21041AJ  23035.78882447  .00003504  00000-0  25394-3 0  9997","RA_OF_ASC_NODE":"169.4584","GP_ID":"224440699","NORAD_CAT_ID":"48585","CLASSIFICATION_TYPE":"U","ELEMENT_SET_NO":"999","EPHEMERIS_TYPE":"0","APOAPSIS":"547.973","LAUNCH_DATE":"2021-05-15","CENTER_NAME":"EARTH","REV_AT_EPOCH":"9490","OBJECT_ID":"2021-041AJ","RCS_SIZE":"LARGE","PERIOD":"95.592"},{"NORAD_CAT_ID":"48586","TLE_LINE1":"1 48586U 21041AK  23035.78145112  .00001218  00000-0  10066-3 0  9999","RA_OF_ASC_NODE":"169.4875","GP_ID":"224440434","APOAPSIS":"548.136","LAUNCH_DATE":"2021-05-15","ELEMENT_SET_NO":"999","CLASSIFICATION_TYPE":"U","EPHEMERIS_TYPE":"0","MEAN_ELEMENT_THEORY":"SGP4","BSTAR":"0.00010066000000","TIME_SYSTEM":"UTC","PERIOD":"95.592","RCS_SIZE":"LARGE","OBJECT_ID":"2021-041AK","REV_AT_EPOCH":"9490","CENTER_NAME":"EARTH","TLE_LINE2":"2 48586  53.0537 169.4875 0001344  99.0677 261.0464 15.06402832 94902","MEAN_MOTION":"15.06402832","DECAY_DATE":null,"ARG_OF_PERICENTER":"99.0677","PERIAPSIS":"546.274","REF_FRAME":"TEME","INCLINATION":"53.0537","EPOCH":"2023-02-04T18:45:17.376768","OBJECT_NAME":"STARLINK-2241","SEMIMAJOR_AXIS":"6925.340","SITE":"AFETR","FILE":"3772514","MEAN_ANOMALY":"261.0464","MEAN_MOTION_DOT":"0.00001218","COUNTRY_CODE":"US","ECCENTRICITY":"0.00013440","MEAN_MOTION_DDOT":"0.0000000000000","OBJECT_TYPE":"PAYLOAD"},{"TIME_SYSTEM":"UTC","BSTAR":"0.00008405600000","MEAN_ELEMENT_THEORY":"SGP4","CLASSIFICATION_TYPE":"U","ELEMENT_SET_NO":"999","EPHEMERIS_TYPE":"0","LAUNCH_DATE":"2021-05-15","APOAPSIS":"547.880","GP_ID":"224439701","TLE_LINE1":"1 48587U 21041AL  23035.65244472  .00000971  00000-0  84056-4 0  9991","RA_OF_ASC_NODE":"170.0653","NORAD_CAT_ID":"48587","REV_AT_EPOCH":"9488","CENTER_NAME":"EARTH","OBJECT_ID":"2021-041AL","RCS_SIZE":"LARGE","PERIOD":"95.592","SITE":"AFETR","SEMIMAJOR_AXIS":"6925.357","OBJECT_NAME":"STARLINK-2242","EPOCH":"2023-02-04T15:39:31.223808","DECAY_DATE":null,"PERIAPSIS":"546.564","REF_FRAME":"TEME","ARG_OF_PERICENTER":"86.6783","INCLINATION":"53.0537","MEAN_MOTION":"15.06397155","TLE_LINE2":"2 48587  53.0537 170.0653 0000950  86.6783 273.4315 15.06397155 94887","OBJECT_TYPE":"PAYLOAD","MEAN_MOTION_DDOT":"0.0000000000000","ECCENTRICITY":"0.00009500","MEAN_MOTION_DOT":"0.00000971","COUNTRY_CODE":"US","MEAN_ANOMALY":"273.4315","FILE":"3772514"},{"EPOCH":"2023-02-04T16:44:32.462880","ARG_OF_PERICENTER":"100.5673","DECAY_DATE":null,"PERIAPSIS":"546.261","REF_FRAME":"TEME","INCLINATION":"53.0527","MEAN_MOTION":"15.06402662","TLE_LINE2":"2 48588  53.0527 159.8590 0001363 100.5673 259.5470 15.06402662 95030","SITE":"AFETR","OBJECT_NAME":"STARLINK-2244","SEMIMAJOR_AXIS":"6925.340","MEAN_MOTION_DOT":"0.00001010","COUNTRY_CODE":"US","FILE":"3772514","MEAN_ANOMALY":"259.5470","OBJECT_TYPE":"PAYLOAD","MEAN_MOTION_DDOT":"0.0000000000000","ECCENTRICITY":"0.00013630","ELEMENT_SET_NO":"999","CLASSIFICATION_TYPE":"U","EPHEMERIS_TYPE":"0","LAUNCH_DATE":"2021-05-15","APOAPSIS":"548.149","TLE_LINE1":"1 48588U 21041AM  23035.69759795  .00001010  00000-0  86692-4 0  9998","RA_OF_ASC_NODE":"159.8590","GP_ID":"224439951","NORAD_CAT_ID":"48588","BSTAR":"0.00008669200000","TIME_SYSTEM":"UTC","MEAN_ELEMENT_THEORY":"SGP4","RCS_SIZE":"LARGE","OBJECT_ID":"2021-041AM","PERIOD":"95.592","REV_AT_EPOCH":"9503","CENTER_NAME":"EARTH"},{"PERIOD":"95.592","OBJECT_ID":"2021-041AN","RCS_SIZE":"LARGE","CENTER_NAME":"EARTH","REV_AT_EPOCH":"9504","APOAPSIS":"548.011","LAUNCH_DATE":"2021-05-15","ELEMENT_SET_NO":"999","CLASSIFICATION_TYPE":"U","EPHEMERIS_TYPE":"0","NORAD_CAT_ID":"48589","GP_ID":"224440199","TLE_LINE1":"1 48589U 21041AN  23035.76025749  .00001060  00000-0  90013-4 0  9999","RA_OF_ASC_NODE":"159.5825","MEAN_ELEMENT_THEORY":"SGP4","TIME_SYSTEM":"UTC","BSTAR":"0.00009001300000","MEAN_ANOMALY":"280.0327","FILE":"3772514","MEAN_MOTION_DOT":"0.00001060","COUNTRY_CODE":"US","MEAN_MOTION_DDOT":"0.0000000000000","OBJECT_TYPE":"PAYLOAD","ECCENTRICITY":"0.00011770","EPOCH":"2023-02-04T18:14:46.247136","MEAN_MOTION":"15.06405874","TLE_LINE2":"2 48589  53.0538 159.5825 0001177  80.0795 280.0327 15.06405874 95040","DECAY_DATE":null,"PERIAPSIS":"546.380","INCLINATION":"53.0538","ARG_OF_PERICENTER":"80.0795","REF_FRAME":"TEME","SITE":"AFETR","SEMIMAJOR_AXIS":"6925.331","OBJECT_NAME":"STARLINK-2245"},{"COUNTRY_CODE":"US","MEAN_MOTION_DOT":"0.00001479","FILE":"3772514","MEAN_ANOMALY":"302.1414","OBJECT_TYPE":"PAYLOAD","MEAN_MOTION_DDOT":"0.0000000000000","ECCENTRICITY":"0.00005490","EPOCH":"2023-02-04T17:52:10.370208","DECAY_DATE":null,"PERIAPSIS":"546.804","REF_FRAME":"TEME","INCLINATION":"53.0527","ARG_OF_PERICENTER":"57.9628","MEAN_MOTION":"15.06409481","TLE_LINE2":"2 48591  53.0527 159.6507 0000549  57.9628 302.1414 15.06409481 95949","SITE":"AFETR","OBJECT_NAME":"STARLINK-2248","SEMIMAJOR_AXIS":"6925.320","RCS_SIZE":"LARGE","OBJECT_ID":"2021-041AQ","PERIOD":"95.592","REV_AT_EPOCH":"9594","CENTER_NAME":"EARTH","ELEMENT_SET_NO":"999","CLASSIFICATION_TYPE":"U","EPHEMERIS_TYPE":"0","LAUNCH_DATE":"2021-05-15","APOAPSIS":"547.565","TLE_LINE1":"1 48591U 21041AQ  23035.74456447  .00001479  00000-0  11813-3 0  9997","GP_ID":"224440935","RA_OF_ASC_NODE":"159.6507","NORAD_CAT_ID":"48591","BSTAR":"0.00011813000000","TIME_SYSTEM":"UTC","MEAN_ELEMENT_THEORY":"SGP4"},{"OBJECT_ID":"2021-041AR","RCS_SIZE":"LARGE","PERIOD":"95.592","REV_AT_EPOCH":"9490","CENTER_NAME":"EARTH","ELEMENT_SET_NO":"999","CLASSIFICATION_TYPE":"U","EPHEMERIS_TYPE":"0","LAUNCH_DATE":"2021-05-15","APOAPSIS":"547.938","GP_ID":"224439201","TLE_LINE1":"1 48592U 21041AR  23035.75471062  .00003954  00000-0  28409-3 0  9998","RA_OF_ASC_NODE":"169.6386","NORAD_CAT_ID":"48592","TIME_SYSTEM":"UTC","BSTAR":"0.00028409000000","MEAN_ELEMENT_THEORY":"SGP4","COUNTRY_CODE":"US","MEAN_MOTION_DOT":"0.00003954","MEAN_ANOMALY":"272.0923","FILE":"3772514","OBJECT_TYPE":"PAYLOAD","MEAN_MOTION_DDOT":"0.0000000000000","ECCENTRICITY":"0.00010850","EPOCH":"2023-02-04T18:06:46.997568","DECAY_DATE":null,"PERIAPSIS":"546.435","REF_FRAME":"TEME","INCLINATION":"53.0505","ARG_OF_PERICENTER":"88.0190","MEAN_MOTION":"15.06408854","TLE_LINE2":"2 48592  53.0505 169.6386 0001085  88.0190 272.0923 15.06408854 94905","SITE":"AFETR","SEMIMAJOR_AXIS":"6925.321","OBJECT_NAME":"STARLINK-2249"},{"SEMIMAJOR_AXIS":"6925.605","OBJECT_NAME":"STARLINK-2250","SITE":"AFETR","TLE_LINE2":"2 48593  53.0536 169.8815 0001621  89.2886 270.8289 15.06316401 94895","MEAN_MOTION":"15.06316401","DECAY_DATE":null,"ARG_OF_PERICENTER":"89.2886","PERIAPSIS":"546.347","REF_FRAME":"TEME","INCLINATION":"53.0536","EPOCH":"2023-02-04T16:37:57.005760","ECCENTRICITY":"0.00016210","MEAN_MOTION_DDOT":"0.0000000000000","OBJECT_TYPE":"PAYLOAD","MEAN_ANOMALY":"270.8289","FILE":"3772514","COUNTRY_CODE":"US","MEAN_MOTION_DOT":"0.00022684","MEAN_ELEMENT_THEORY":"SGP4","TIME_SYSTEM":"UTC","BSTAR":"0.00154030000000","NORAD_CAT_ID":"48593","GP_ID":"224439451","TLE_LINE1":"1 48593U 21041AS  23035.69302090  .00022684  00000-0  15403-2 0  9996","RA_OF_ASC_NODE":"169.8815","LAUNCH_DATE":"2021-05-15","APOAPSIS":"548.592","ELEMENT_SET_NO":"999","EPHEMERIS_TYPE":"0","CLASSIFICATION_TYPE":"U","REV_AT_EPOCH":"9489","CENTER_NAME":"EARTH","PERIOD":"95.597","OBJECT_ID":"2021-041AS","RCS_SIZE":"LARGE"}];
